{
  "type": "FeatureCollection",
  "app": {
    "version": 3,
    "appName": "tactical-map"
  },
  "__layers": [
    {
      "id": "layer-1",
      "name": "Free Draw Layer",
      "visible": true,
      "active": true
    }
  ],
  "__folders": [],
  "features": [
    {
      "type": "Feature",
      "geometry": {
        "type": "LineString",
        "coordinates": [
          [
            52.23305997226474,
            23.949943232741084
          ],
          [
            52.23305997226474,
            23.949943232741084
          ]
        ]
      },
      "properties": {
        "app": {
          "kind": "tmg-single",
          "latlng1": [
            52.23305997226474,
            23.949943232741084
          ],
          "latlng2": [
            52.23305997226474,
            23.949943232741084
          ],
          "typeId": "circle-x",
          "color": "#3b82f6",
          "filled": false,
          "dashed": false,
          "strokeWidth": 1.5,
          "sessionId": "free-draw-1782041033229-8050"
        },
        "layerId": "layer-1"
      }
    },
    {
      "type": "Feature",
      "geometry": {
        "type": "LineString",
        "coordinates": [
          [
            52.42183064911555,
            24.050270826801935
          ],
          [
            52.42183064911555,
            24.050270826801935
          ]
        ]
      },
      "properties": {
        "app": {
          "kind": "tmg-single",
          "latlng1": [
            52.42183064911555,
            24.050270826801935
          ],
          "latlng2": [
            52.42183064911555,
            24.050270826801935
          ],
          "typeId": "circle-x",
          "color": "#3b82f6",
          "filled": false,
          "dashed": false,
          "strokeWidth": 1.5,
          "sessionId": "free-draw-1782041033229-8050"
        },
        "layerId": "layer-1"
      }
    },
    {
      "type": "Feature",
      "geometry": {
        "type": "LineString",
        "coordinates": [
          [
            52.3366959391459,
            23.990684536056275
          ],
          [
            52.3366959391459,
            23.990684536056275
          ]
        ]
      },
      "properties": {
        "app": {
          "kind": "tmg-single",
          "latlng1": [
            52.3366959391459,
            23.990684536056275
          ],
          "latlng2": [
            52.3366959391459,
            23.990684536056275
          ],
          "typeId": "circle-x",
          "color": "#3b82f6",
          "filled": false,
          "dashed": false,
          "strokeWidth": 1.5,
          "sessionId": "free-draw-1782041033229-8050"
        },
        "layerId": "layer-1"
      }
    },
    {
      "type": "Feature",
      "geometry": {
        "type": "LineString",
        "coordinates": [
          [
            52.42183064911555,
            24.050270826801935
          ],
          [
            52.39372183426408,
            24.03551156384175
          ],
          [
            52.35390076024605,
            24.011677624160114
          ],
          [
            52.3366959391459,
            23.990684536056275
          ],
          [
            52.28352731047276,
            23.975604711909984
          ],
          [
            52.23305997226474,
            23.949943232741084
          ]
        ]
      },
      "properties": {
        "app": {
          "kind": "tmg-group",
          "points": [
            [
              52.42183064911555,
              24.050270826801935
            ],
            [
              52.39372183426408,
              24.03551156384175
            ],
            [
              52.35390076024605,
              24.011677624160114
            ],
            [
              52.3366959391459,
              23.990684536056275
            ],
            [
              52.28352731047276,
              23.975604711909984
            ],
            [
              52.23305997226474,
              23.949943232741084
            ]
          ],
          "typeId": "scalloped",
          "color": "#3b82f6",
          "filled": false,
          "dashed": false,
          "strokeWidth": 1.5,
          "sessionId": "free-draw-1782041033229-8050",
          "scallopSide": -1
        },
        "layerId": "layer-1"
      }
    },
    {
      "type": "Feature",
      "geometry": {
        "type": "MultiPolygon",
        "coordinates": [
          [
            [
              [
                52.33178798978038,
                23.794676905112453
              ],
              [
                52.430534362792976,
                23.639177567772187
              ],
              [
                52.61936187744141,
                23.739469080585128
              ],
              [
                52.52062308340422,
                23.89499375594733
              ],
              [
                52.33178798978038,
                23.794676905112453
              ]
            ]
          ]
        ]
      },
      "properties": {
        "app": {
          "kind": "multipolygon",
          "polygons": [
            [
              [
                [
                  52.33178798978038,
                  23.794676905112453
                ],
                [
                  52.430534362792976,
                  23.639177567772187
                ],
                [
                  52.61936187744141,
                  23.739469080585128
                ],
                [
                  52.52062308340422,
                  23.89499375594733
                ]
              ]
            ]
          ],
          "color": "#3b82f6",
          "weight": 3,
          "fillColor": "#3b82f6",
          "fillOpacity": 0.08,
          "dashArray": null,
          "autoFlank": {
            "area": true,
            "typeId": "auto-flank-area",
            "sessionId": "free-draw-1782041033229-8050",
            "tag": "brigade",
            "lengthKm": 40,
            "parentUnitId": null,
            "areaRole": "brigade-rear",
            "className": "auto-flank-area",
            "stroke": true
          }
        },
        "layerId": "layer-1"
      }
    },
    {
      "type": "Feature",
      "geometry": {
        "type": "MultiPolygon",
        "coordinates": [
          [
            [
              [
                52.429025169514745,
                23.846431914001535
              ],
              [
                52.520484924316406,
                23.89494101771337
              ],
              [
                52.520484924316406,
                23.89494101771337
              ],
              [
                52.42195129394532,
                24.050226275705995
              ],
              [
                52.39379882812501,
                24.035490064954978
              ],
              [
                52.35397338867188,
                24.011657722142214
              ],
              [
                52.337143633008886,
                23.991055778745235
              ],
              [
                52.429025169514745,
                23.846431914001535
              ]
            ]
          ]
        ]
      },
      "properties": {
        "app": {
          "kind": "multipolygon",
          "polygons": [
            [
              [
                [
                  52.429025169514745,
                  23.846431914001535
                ],
                [
                  52.520484924316406,
                  23.89494101771337
                ],
                [
                  52.520484924316406,
                  23.89494101771337
                ],
                [
                  52.42195129394532,
                  24.050226275705995
                ],
                [
                  52.39379882812501,
                  24.035490064954978
                ],
                [
                  52.35397338867188,
                  24.011657722142214
                ],
                [
                  52.337143633008886,
                  23.991055778745235
                ]
              ]
            ]
          ],
          "color": "#3b82f6",
          "weight": 3,
          "fillColor": "#3b82f6",
          "fillOpacity": 0.08,
          "dashArray": null,
          "autoFlank": {
            "area": true,
            "typeId": "auto-flank-area",
            "sessionId": "free-draw-1782041033229-8050",
            "tag": "brigade",
            "lengthKm": 20,
            "parentUnitId": null,
            "areaRole": "battalion-left",
            "className": "auto-flank-area",
            "stroke": false
          }
        },
        "layerId": "layer-1"
      }
    },
    {
      "type": "Feature",
      "geometry": {
        "type": "LineString",
        "coordinates": [
          [
            52.337143633008886,
            23.991055778745235
          ],
          [
            52.429025169514745,
            23.846431914001535
          ],
          [
            52.429025169514745,
            23.846431914001535
          ],
          [
            52.520484924316406,
            23.89494101771337
          ],
          [
            52.520484924316406,
            23.89494101771337
          ],
          [
            52.42195129394532,
            24.050226275705995
          ]
        ]
      },
      "properties": {
        "app": {
          "kind": "polyline",
          "color": "#3b82f6",
          "weight": 3,
          "dashArray": null,
          "autoFlank": {
            "area": true,
            "typeId": "auto-flank-area-outline",
            "sessionId": "free-draw-1782041033229-8050",
            "tag": "brigade",
            "lengthKm": 20,
            "parentUnitId": null,
            "areaRole": null,
            "className": "auto-flank-area-outline"
          }
        },
        "layerId": "layer-1"
      }
    },
    {
      "type": "Feature",
      "geometry": {
        "type": "MultiPolygon",
        "coordinates": [
          [
            [
              [
                52.337143633008886,
                23.991055778745235
              ],
              [
                52.33680725097657,
                23.990643967099476
              ],
              [
                52.334403991699226,
                23.99001663808953
              ],
              [
                52.2835922241211,
                23.975587227340032
              ],
              [
                52.233123779296875,
                23.949861226199314
              ],
              [
                52.331657409667976,
                23.794769321258045
              ],
              [
                52.429025169514745,
                23.846431914001535
              ],
              [
                52.337143633008886,
                23.991055778745235
              ]
            ]
          ]
        ]
      },
      "properties": {
        "app": {
          "kind": "multipolygon",
          "polygons": [
            [
              [
                [
                  52.337143633008886,
                  23.991055778745235
                ],
                [
                  52.33680725097657,
                  23.990643967099476
                ],
                [
                  52.334403991699226,
                  23.99001663808953
                ],
                [
                  52.2835922241211,
                  23.975587227340032
                ],
                [
                  52.233123779296875,
                  23.949861226199314
                ],
                [
                  52.331657409667976,
                  23.794769321258045
                ],
                [
                  52.429025169514745,
                  23.846431914001535
                ]
              ]
            ]
          ],
          "color": "#3b82f6",
          "weight": 3,
          "fillColor": "#3b82f6",
          "fillOpacity": 0.08,
          "dashArray": null,
          "autoFlank": {
            "area": true,
            "typeId": "auto-flank-area",
            "sessionId": "free-draw-1782041033229-8050",
            "tag": "brigade",
            "lengthKm": 20,
            "parentUnitId": null,
            "areaRole": "battalion-right",
            "className": "auto-flank-area",
            "stroke": false
          }
        },
        "layerId": "layer-1"
      }
    },
    {
      "type": "Feature",
      "geometry": {
        "type": "LineString",
        "coordinates": [
          [
            52.233123779296875,
            23.949861226199314
          ],
          [
            52.331657409667976,
            23.794769321258045
          ],
          [
            52.429025169514745,
            23.846431914001535
          ],
          [
            52.337143633008886,
            23.991055778745235
          ]
        ]
      },
      "properties": {
        "app": {
          "kind": "polyline",
          "color": "#3b82f6",
          "weight": 3,
          "dashArray": null,
          "autoFlank": {
            "area": true,
            "typeId": "auto-flank-area-outline",
            "sessionId": "free-draw-1782041033229-8050",
            "tag": "brigade",
            "lengthKm": 20,
            "parentUnitId": null,
            "areaRole": null,
            "className": "auto-flank-area-outline"
          }
        },
        "layerId": "layer-1"
      }
    },
    {
      "type": "Feature",
      "geometry": {
        "type": "LineString",
        "coordinates": [
          [
            52.33178798978038,
            23.794676905112453
          ],
          [
            52.52062308340422,
            23.89499375594733
          ]
        ]
      },
      "properties": {
        "app": {
          "kind": "polyline",
          "color": "#3b82f6",
          "weight": 3,
          "dashArray": null,
          "autoFlank": {
            "area": true,
            "typeId": "auto-flank-area-seam",
            "sessionId": "free-draw-1782041033229-8050",
            "tag": "brigade",
            "lengthKm": 20,
            "parentUnitId": null,
            "areaRole": null,
            "className": "auto-flank-area-seam"
          }
        },
        "layerId": "layer-1"
      }
    },
    {
      "type": "Feature",
      "geometry": {
        "type": "LineString",
        "coordinates": [
          [
            52.337143633008886,
            23.991055778745235
          ],
          [
            52.429025169514745,
            23.846431914001535
          ]
        ]
      },
      "properties": {
        "app": {
          "kind": "polyline",
          "color": "#3b82f6",
          "weight": 3,
          "dashArray": null,
          "autoFlank": {
            "area": true,
            "typeId": "auto-flank-area-divider",
            "sessionId": "free-draw-1782041033229-8050",
            "tag": "brigade",
            "lengthKm": 20,
            "parentUnitId": null,
            "areaRole": null,
            "className": "auto-flank-area-divider"
          }
        },
        "layerId": "layer-1"
      }
    }
  ]
}